id,postal_code,territory,latitude,longitude
0,10434,ΠΛΑΤΕΙΑ ΒΙΚΤΩΡΙΑΣ ΑΘΗΝΑ,37.9949649,23.7342919
1,10441,ΚΟΛΩΝΟΣ,37.9872999,23.7115145
2,10443,ΣΕΠΟΛΙΑ,38.0114824,23.7150906
3,10447,ΑΘΗΝΑ ΒΟΤΑΝΙΚΟΣ,37.9848474,23.7074422
4,10558,ΠΛΑΚΑ ΘΗΣΕΙΟ,37.9691227,23.7351664
5,10558,ΠΛΑΚΑ ΘΗΣΕΙΟ,37.969074,23.7351476
6,10558,ΠΛΑΚΑ ΘΗΣΕΙΟ,37.9691014,23.7345985
7,10558,ΠΛΑΚΑ ΘΗΣΕΙΟ,37.9690922,23.7347817
8,10558,ΠΛΑΚΑ ΘΗΣΕΙΟ,37.969083,23.734966
9,10558,ΠΛΑΚΑ ΘΗΣΕΙΟ,37.969493,23.7348032
10,10558,ΠΛΑΚΑ ΘΗΣΕΙΟ,37.9695028,23.734611
11,10676,ΕΥΑΓΓΕΛΙΣΜΟΣ,37.9786586,23.7480641
12,11141,ΚΥΠΡΙΑΔΟΥ ΑΘΗΝΑ,38.0180998,23.7388239
13,11475,ΓΚΥΖΗ,37.9865976,23.753385
14,11475,ΓΚΥΖΗ,37.986343,23.7530863
15,11476,ΓΚΥΖΗ,38.0060419,23.7576253
16,11525,ΕΛΛΗΝΟΡΡΩΣΩΝ,37.999971,23.7746358
17,11525,ΕΛΛΗΝΟΡΡΩΣΩΝ,37.9996402,23.7749979
18,11525,ΕΛΛΗΝΟΡΡΩΣΩΝ,37.9911063,23.7809947
19,11525,ΕΛΛΗΝΟΡΡΩΣΩΝ,37.9909781,23.7793132
20,11528,ΜΙΧΑΛΑΚΟΠΟΥΛΟΥ,37.9839705,23.7557248
21,11853,ΠΕΤΡΑΛΩΝΑ ΚΑΤΩ,37.9725644,23.7054999
22,11855,ΒΟΤΑΝΙΚΟΣ,37.9847713,23.707628
23,12043,,37.9991439,23.6784516
24,12135,ΠΕΡΙΣΤΕΡΙ,38.0188098,23.6868513
25,12243,ΑΙΓΑΛΕΩ ΑΝΑΓΕΝΝΗΣΗ,38.0012617,23.6742352
26,12351,ΑΓΙΑ ΒΑΡΒΑΡΑ,37.9910572,23.6635611
27,12461,ΧΑΙΔΑΡΙ,38.0003803,23.6593827
28,12461,ΧΑΙΔΑΡΙ,38.0005027,23.6595825
29,12461,ΧΑΙΔΑΡΙ,38.0005227,23.6597728
30,12462,ΧΑΙΔΑΡΙ ΔΑΣΟΣ,38.0112222,23.6434369
31,12462,ΧΑΙΔΑΡΙ ΔΑΣΟΣ,38.0113801,23.6429705
32,13121,ΝΕΑ ΛΙΟΣΙΑ ΠΑΛΑΤΙΑΝΗ,38.0311426,23.6957622
33,13121,ΝΕΑ ΛΙΟΣΙΑ ΠΑΛΑΤΙΑΝΗ,38.0310853,23.6955436
34,13232,ΠΕΤΡΟΥΠΟΛΗ,38.0472223,23.6876165
35,13232,ΠΕΤΡΟΥΠΟΛΗ,38.0468922,23.6876615
36,13232,ΠΕΤΡΟΥΠΟΛΗ,38.0462246,23.6874076
37,13232,ΠΕΤΡΟΥΠΟΛΗ,38.0471717,23.6625945
38,13232,ΠΕΤΡΟΥΠΟΛΗ,38.0471643,23.6627923
39,13232,ΠΕΤΡΟΥΠΟΛΗ,38.0467623,23.6876331
40,13232,ΠΕΤΡΟΥΠΟΛΗ,38.0466139,23.687603
41,13232,ΠΕΤΡΟΥΠΟΛΗ,38.0464851,23.6875783
42,13561,ΑΓΙΑ ΑΝΑΡΓΥΡΟΙ,38.0258336,23.7183062
43,13561,ΑΓΙΑ ΑΝΑΡΓΥΡΟΙ,38.0298218,23.7203344
44,13562,ΑΓΙΑ ΑΝΑΡΓΥΡΟΙ,38.0411751,23.7276597
45,13562,ΑΓΙΑ ΑΝΑΡΓΥΡΟΙ,38.0440156,23.7295249
46,14231,ΝΕΑ ΙΩΝΙΑ ΙΩΝΙΑ,38.0467325,23.7476584
47,14231,ΝΕΑ ΙΩΝΙΑ ΙΩΝΙΑ,38.0363661,23.7502203
48,14233,ΝΕΟΚΤΙΣΤΑ ΝΕΑΠΟΛΕΩΣ,38.0276608,23.7648339
49,14233,ΝΕΟΚΤΙΣΤΑ ΝΕΑΠΟΛΕΩΣ,38.0299,23.7637579
50,14233,ΝΕΟΚΤΙΣΤΑ ΝΕΑΠΟΛΕΩΣ,38.0277732,23.7646833
51,14233,ΝΕΟΚΤΙΣΤΑ ΝΕΑΠΟΛΕΩΣ,38.0277599,23.7640945
52,14233,ΝΕΟΚΤΙΣΤΑ ΝΕΑΠΟΛΕΩΣ,38.0276482,23.7642443
53,14233,ΝΕΟΚΤΙΣΤΑ ΝΕΑΠΟΛΕΩΣ,38.0275346,23.7643965
54,14233,ΝΕΟΚΤΙΣΤΑ ΝΕΑΠΟΛΕΩΣ,38.0274223,23.7645471
55,14233,ΝΕΟΚΤΙΣΤΑ ΝΕΑΠΟΛΕΩΣ,38.0279319,23.7644113
56,14262,,38.018621,23.6553226
57,14262,,38.0185007,23.6538147
58,14262,,38.0192078,23.6556991
59,14342,ΝΕΑ ΦΙΛΑΔΕΛΦΕΙΑ,38.047335,23.7434311
60,14342,ΝΕΑ ΦΙΛΑΔΕΛΦΕΙΑ,38.0482912,23.7442939
61,14342,ΝΕΑ ΦΙΛΑΔΕΛΦΕΙΑ,38.0479758,23.7440746
62,14342,ΝΕΑ ΦΙΛΑΔΕΛΦΕΙΑ,38.0477458,23.7438295
63,15001,,38.0027551,23.830241
64,15001,,38.0054929,23.834432
65,15001,,38.0055078,23.8345989
66,15001,,38.0055376,23.8349307
67,15001,,38.0028502,23.8301516
68,15001,,38.0055227,23.8347653
69,15001,,38.0100094,23.8364594
70,15001,,38.0087275,23.8344098
71,15001,,38.0089765,23.8345116
72,15001,,38.0090715,23.8345504
73,15001,,38.0088622,23.8344649
74,15123,ΜΑΡΟΥΣΙ ΝΕΑ ΦΙΛΟΘΕΗ,38.0401378,23.7921846
75,15123,ΜΑΡΟΥΣΙ ΝΕΑ ΦΙΛΟΘΕΗ,38.0401296,23.7921849
76,15123,ΜΑΡΟΥΣΙ ΝΕΑ ΦΙΛΟΘΕΗ,38.0401475,23.7899686
77,15123,ΜΑΡΟΥΣΙ ΝΕΑ ΦΙΛΟΘΕΗ,38.0393181,23.7910841
78,15123,ΜΑΡΟΥΣΙ ΝΕΑ ΦΙΛΟΘΕΗ,38.0406759,23.7899798
79,15123,ΜΑΡΟΥΣΙ ΝΕΑ ΦΙΛΟΘΕΗ,38.0410822,23.78986
80,15123,ΜΑΡΟΥΣΙ ΝΕΑ ΦΙΛΟΘΕΗ,38.0408006,23.7906751
81,15123,ΜΑΡΟΥΣΙ ΝΕΑ ΦΙΛΟΘΕΗ,38.0407482,23.7903555
82,15123,ΜΑΡΟΥΣΙ ΝΕΑ ΦΙΛΟΘΕΗ,38.040998,23.7893883
83,15123,ΜΑΡΟΥΣΙ ΝΕΑ ΦΙΛΟΘΕΗ,38.040283,23.7904794
84,15123,ΜΑΡΟΥΣΙ ΝΕΑ ΦΙΛΟΘΕΗ,38.0409656,23.7891964
85,15123,ΜΑΡΟΥΣΙ ΝΕΑ ΦΙΛΟΘΕΗ,38.0414105,23.7895638
86,15123,ΜΑΡΟΥΣΙ ΝΕΑ ΦΙΛΟΘΕΗ,38.0406219,23.7896631
87,15123,ΜΑΡΟΥΣΙ ΝΕΑ ΦΙΛΟΘΕΗ,38.0403426,23.7907955
88,15123,ΜΑΡΟΥΣΙ ΝΕΑ ΦΙΛΟΘΕΗ,38.0403939,23.7911197
89,15123,ΜΑΡΟΥΣΙ ΝΕΑ ΦΙΛΟΘΕΗ,38.0414428,23.7897558
90,15123,ΜΑΡΟΥΣΙ ΝΕΑ ΦΙΛΟΘΕΗ,38.0410498,23.789668
91,15125,ΜΑΡΟΥΣΙ ΠΑΡΑΔΕΙΣΟΣ,38.038277,23.8107909
92,15125,ΜΑΡΟΥΣΙ ΠΑΡΑΔΕΙΣΟΣ,38.0345397,23.8020857
93,15126,ΜΑΡΟΥΣΙ ΝΕΑ ΛΕΣΒΟΣ,38.0416269,23.8221187
94,15126,ΜΑΡΟΥΣΙ ΝΕΑ ΛΕΣΒΟΣ,38.0455803,23.825623
95,15126,ΜΑΡΟΥΣΙ ΝΕΑ ΛΕΣΒΟΣ,38.0457128,23.8252563
96,15126,ΜΑΡΟΥΣΙ ΝΕΑ ΛΕΣΒΟΣ,38.0457965,23.8250578
97,15126,ΜΑΡΟΥΣΙ ΝΕΑ ΛΕΣΒΟΣ,38.041595,23.8225379
98,15126,ΜΑΡΟΥΣΙ ΝΕΑ ΛΕΣΒΟΣ,38.0456406,23.8254252
99,15126,ΜΑΡΟΥΣΙ ΝΕΑ ΛΕΣΒΟΣ,38.0458704,23.8248884
100,15126,ΜΑΡΟΥΣΙ ΝΕΑ ΛΕΣΒΟΣ,38.0388976,23.8202175
101,15127,ΜΕΛΙΣΣΙΑ,38.0429351,23.8415333
102,15127,ΜΕΛΙΣΣΙΑ,38.0431578,23.8418292
103,15127,ΜΕΛΙΣΣΙΑ,38.0435803,23.8423658
104,15127,ΜΕΛΙΣΣΙΑ,38.0430379,23.84167
105,15127,ΜΕΛΙΣΣΙΑ,38.0434423,23.8421812
106,15231,ΧΑΛΑΝΔΡΙ ΑΓΙΑ ΒΑΡΒΑΡΑ,38.0088703,23.7870342
107,15234,ΧΑΛΑΝΔΡΙ,38.0279877,23.8133568
108,15234,ΧΑΛΑΝΔΡΙ,38.0177737,23.8149952
109,15234,ΧΑΛΑΝΔΡΙ,38.017723,23.8151961
110,15234,ΧΑΛΑΝΔΡΙ,38.0176729,23.8153882
111,15234,ΧΑΛΑΝΔΡΙ,38.0238535,23.8219698
112,15234,ΧΑΛΑΝΔΡΙ,38.0151361,23.8092111
113,15234,ΧΑΛΑΝΔΡΙ,38.0160168,23.8092174
114,15234,ΧΑΛΑΝΔΡΙ,38.0161299,23.8089371
115,15234,ΧΑΛΑΝΔΡΙ,38.0176984,23.8152922
116,15236,ΠΕΝΤΕΛΗ ΝΕΑ ΠΕΝΤΕΛΗΟΡ,38.0406208,23.8587769
117,15237,ΦΙΛΟΘΕΗ,38.0161519,23.7810675
118,15237,ΦΙΛΟΘΕΗ,38.0159304,23.7813669
119,15237,ΦΙΛΟΘΕΗ,38.0172111,23.7802937
120,15237,ΦΙΛΟΘΕΗ,38.0180824,23.7799879
121,15237,ΦΙΛΟΘΕΗ,38.0160123,23.7812162
122,15237,ΦΙΛΟΘΕΗ,38.0181698,23.780068
123,15237,ΦΙΛΟΘΕΗ,38.0136152,23.7776905
124,15237,ΦΙΛΟΘΕΗ,38.0135947,23.7779264
125,15237,ΦΙΛΟΘΕΗ,38.016598,23.771467
126,15237,ΦΙΛΟΘΕΗ,38.0195952,23.7702033
127,15237,ΦΙΛΟΘΕΗ,38.0273424,23.7819105
128,15237,ΦΙΛΟΘΕΗ,38.0274464,23.7820146
129,15237,ΦΙΛΟΘΕΗ,38.0276382,23.7816745
130,15237,ΦΙΛΟΘΕΗ,38.0275396,23.7815788
131,15237,ΦΙΛΟΘΕΗ,38.0275998,23.7825073
132,15237,ΦΙΛΟΘΕΗ,38.0165599,23.7777442
133,15238,ΧΑΛΑΝΔΡΙ,38.0418033,23.8358245
134,15238,ΧΑΛΑΝΔΡΙ,38.0367786,23.8485589
135,15238,ΧΑΛΑΝΔΡΙ,38.0299202,23.845417
136,15238,ΧΑΛΑΝΔΡΙ,38.0298255,23.8455913
137,15238,ΧΑΛΑΝΔΡΙ,38.0297322,23.8457623
138,15238,ΧΑΛΑΝΔΡΙ,38.0296402,23.8459384
139,15341,ΑΓΙΑ ΠΑΡΑΣΚΕΥΗ ΝΕΑ ΖΩΗ,38.0144866,23.8128995
140,15341,ΑΓΙΑ ΠΑΡΑΣΚΕΥΗ ΝΕΑ ΖΩΗ,38.0146131,23.8125252
141,15341,ΑΓΙΑ ΠΑΡΑΣΚΕΥΗ ΝΕΑ ΖΩΗ,38.0143315,23.8125561
142,15341,ΑΓΙΑ ΠΑΡΑΣΚΕΥΗ ΝΕΑ ΖΩΗ,38.0142853,23.8133375
143,15341,ΑΓΙΑ ΠΑΡΑΣΚΕΥΗ ΝΕΑ ΖΩΗ,38.0142241,23.8128743
144,15341,ΑΓΙΑ ΠΑΡΑΣΚΕΥΗ ΝΕΑ ΖΩΗ,37.9955768,23.8144236
145,15341,ΑΓΙΑ ΠΑΡΑΣΚΕΥΗ ΝΕΑ ΖΩΗ,38.0126661,23.8093598
146,15341,ΑΓΙΑ ΠΑΡΑΣΚΕΥΗ ΝΕΑ ΖΩΗ,38.0144166,23.812307
147,15341,ΑΓΙΑ ΠΑΡΑΣΚΕΥΗ ΝΕΑ ΖΩΗ,38.0144734,23.8121403
148,15341,ΑΓΙΑ ΠΑΡΑΣΚΕΥΗ ΝΕΑ ΖΩΗ,38.0141582,23.812841
149,15342,ΑΓΙΑ ΠΑΡΑΣΚΕΥΗ ΑΓΙΑΝΝΗ,38.0020343,23.8247017
150,15342,ΑΓΙΑ ΠΑΡΑΣΚΕΥΗ ΑΓΙΑΝΝΗ,38.0014539,23.8255647
151,15342,ΑΓΙΑ ΠΑΡΑΣΚΕΥΗ ΑΓΙΑΝΝΗ,38.0015937,23.8254559
152,15343,ΑΓΙΑ ΠΑΡΑΣΚΕΥΗ ΠΕΥΚΑΚΙ,38.0189386,23.8308807
153,15344,ΑΝΘΟΥΣΑ,38.018629,23.859096
154,15344,ΑΝΘΟΥΣΑ,38.0182641,23.8590921
155,15344,ΑΝΘΟΥΣΑ,38.0186314,23.8587984
156,15344,ΑΝΘΟΥΣΑ,38.0182724,23.8587945
157,15344,ΑΝΘΟΥΣΑ,38.0239952,23.8548727
158,15344,ΑΝΘΟΥΣΑ,38.0240205,23.854621
159,15349,ΑΝΘΟΥΣΑ,38.0183405,23.8702526
160,15349,ΑΝΘΟΥΣΑ,38.0183243,23.8704268
161,15349,ΑΝΘΟΥΣΑ,38.0183074,23.870607
162,15349,ΑΝΘΟΥΣΑ,38.0080435,23.8702651
163,15349,ΑΝΘΟΥΣΑ,38.0077514,23.870039
164,15349,ΑΝΘΟΥΣΑ,38.007738,23.8702233
165,15349,ΑΝΘΟΥΣΑ,38.0077229,23.8704203
166,15349,ΑΝΘΟΥΣΑ,38.0073739,23.8701772
167,15349,ΑΝΘΟΥΣΑ,38.0074013,23.8699192
168,15349,ΑΝΘΟΥΣΑ,38.0073951,23.8696356
169,15349,ΑΝΘΟΥΣΑ,38.0073979,23.8697753
170,15349,ΑΝΘΟΥΣΑ,38.0073616,23.8703636
171,15351,ΠΑΛΛΗΝΗ,37.9993678,23.8653208
172,15351,ΠΑΛΛΗΝΗ,37.9806564,23.8558248
173,15351,ΠΑΛΛΗΝΗ,38.006203,23.8743084
174,15351,ΠΑΛΛΗΝΗ,38.006286,23.8738221
175,15351,ΠΑΛΛΗΝΗ,38.0150365,23.8991425
176,15351,ΠΑΛΛΗΝΗ,38.0149418,23.8920886
177,15351,ΠΑΛΛΗΝΗ,38.0159467,23.875538
178,15351,ΠΑΛΛΗΝΗ,38.0160486,23.8744123
179,15351,ΠΑΛΛΗΝΗ,38.0160197,23.8747311
180,15351,ΠΑΛΛΗΝΗ,38.0160355,23.874557
181,15351,ΠΑΛΛΗΝΗ,38.0159653,23.8753328
182,15351,ΠΑΛΛΗΝΗ,38.0160769,23.8740998
183,15351,ΠΑΛΛΗΝΗ,38.0160015,23.8749326
184,15351,ΠΑΛΛΗΝΗ,38.0160625,23.8742596
185,15351,ΠΑΛΛΗΝΗ,38.0159837,23.8751294
186,15351,ΠΑΛΛΗΝΗ,38.0062614,23.8740181
187,15351,ΠΑΛΛΗΝΗ,37.9992387,23.8947845
188,15351,ΠΑΛΛΗΝΗ,37.999232,23.89726
189,15351,ΠΑΛΛΗΝΗ,37.9992136,23.8974718
190,15351,ΠΑΛΛΗΝΗ,37.9991785,23.8977136
191,15351,ΠΑΛΛΗΝΗ,37.9991591,23.897919
192,15351,ΠΑΛΛΗΝΗ,37.9991261,23.8981659
193,15351,ΠΑΛΛΗΝΗ,37.9991056,23.8983752
194,15351,ΠΑΛΛΗΝΗ,37.9845065,23.862725
195,15351,ΠΑΛΛΗΝΗ,37.980623,23.8677566
196,15351,ΠΑΛΛΗΝΗ,37.9806155,23.8679318
197,15351,ΠΑΛΛΗΝΗ,38.0099859,23.8883503
198,15354,ΓΛΥΚΑ ΝΕΡΑ,38.0058724,23.8496628
199,15354,ΓΛΥΚΑ ΝΕΡΑ,37.9829069,23.8464582
200,15451,ΝΕΑ ΨΥΧΙΚΟ,38.0064237,23.7794508
201,15451,ΝΕΑ ΨΥΧΙΚΟ,37.9995778,23.7795843
202,15451,ΝΕΑ ΨΥΧΙΚΟ,38.0132729,23.7779892
203,15451,ΝΕΑ ΨΥΧΙΚΟ,38.0130735,23.7776723
204,15451,ΝΕΑ ΨΥΧΙΚΟ,38.013283,23.7777563
205,15451,ΝΕΑ ΨΥΧΙΚΟ,38.0027513,23.7775044
206,15451,ΝΕΑ ΨΥΧΙΚΟ,37.999285,23.7793648
207,15451,ΝΕΑ ΨΥΧΙΚΟ,38.0066738,23.7795557
208,15452,ΨΥΧΙΚΟ ΑΓΙΑ ΔΗΜΗΤΡΙΟΣ,38.0132819,23.7770648
209,15452,ΨΥΧΙΚΟ ΑΓΙΑ ΔΗΜΗΤΡΙΟΣ,38.0132172,23.7772557
210,15452,ΨΥΧΙΚΟ ΑΓΙΑ ΔΗΜΗΤΡΙΟΣ,38.0088555,23.7721825
211,15562,ΧΟΛΑΡΓΟΣ ΠΛΑΤΕΙΑ ΕΘ ΝΕΑ ΑΝΤΙ,37.9928362,23.8079759
212,15562,ΧΟΛΑΡΓΟΣ ΠΛΑΤΕΙΑ ΕΘ ΝΕΑ ΑΝΤΙ,37.9933355,23.8086915
213,15562,ΧΟΛΑΡΓΟΣ ΠΛΑΤΕΙΑ ΕΘ ΝΕΑ ΑΝΤΙ,37.9931808,23.8091466
214,15562,ΧΟΛΑΡΓΟΣ ΠΛΑΤΕΙΑ ΕΘ ΝΕΑ ΑΝΤΙ,37.998817,23.8066786
215,15669,ΠΑΠΑΓΟΥ,37.9839076,23.8024947
216,15669,ΠΑΠΑΓΟΥ,37.9831901,23.803207
217,15669,ΠΑΠΑΓΟΥ,37.9834898,23.8024765
218,15669,ΠΑΠΑΓΟΥ,37.9831834,23.8029742
219,15669,ΠΑΠΑΓΟΥ,37.9834999,23.8026952
220,15669,ΠΑΠΑΓΟΥ,37.9831968,23.8034403
221,15669,ΠΑΠΑΓΟΥ,37.9834807,23.8022793
222,15669,ΠΑΠΑΓΟΥ,37.9898357,23.7869877
223,15771,ΖΩΓΡΑΦΟΥ ΑΝΩ ΙΛΙΣΙΑ,37.9724184,23.7615038
224,15771,ΖΩΓΡΑΦΟΥ ΑΝΩ ΙΛΙΣΙΑ,37.9724488,23.761741
225,15772,ΖΩΓΡΑΦΟΥ ΑΝΩ ΙΛΙΣΙΑ,37.9702404,23.778522
226,15772,ΖΩΓΡΑΦΟΥ ΑΝΩ ΙΛΙΣΙΑ,37.9703198,23.7779842
227,15772,ΖΩΓΡΑΦΟΥ ΑΝΩ ΙΛΙΣΙΑ,37.9704112,23.7785992
228,15772,ΖΩΓΡΑΦΟΥ ΑΝΩ ΙΛΙΣΙΑ,37.9703725,23.7780885
229,15772,ΖΩΓΡΑΦΟΥ ΑΝΩ ΙΛΙΣΙΑ,37.9673778,23.7628469
230,15773,ΖΩΓΡΑΦΟΥ ΓΟΥΔΙ,37.9736732,23.784572
231,15773,ΖΩΓΡΑΦΟΥ ΓΟΥΔΙ,37.9734581,23.784572
232,15773,ΖΩΓΡΑΦΟΥ ΓΟΥΔΙ,37.9845227,23.7717338
233,15773,ΖΩΓΡΑΦΟΥ ΓΟΥΔΙ,37.9842251,23.772721
234,15773,ΖΩΓΡΑΦΟΥ ΓΟΥΔΙ,37.9844124,23.7718301
235,15773,ΖΩΓΡΑΦΟΥ ΓΟΥΔΙ,37.9842976,23.7720638
236,15773,ΖΩΓΡΑΦΟΥ ΓΟΥΔΙ,37.984388,23.7714475
237,15780,ΠΑΝΕΠΙΣΤΗΜΙΟΥΠΟΛΗ,37.9840936,23.7811881
238,15780,ΠΑΝΕΠΙΣΤΗΜΙΟΥΠΟΛΗ,37.9711771,23.7642255
239,15780,ΠΑΝΕΠΙΣΤΗΜΙΟΥΠΟΛΗ,37.97102,23.7639703
240,15780,ΠΑΝΕΠΙΣΤΗΜΙΟΥΠΟΛΗ,37.9723837,23.7612427
241,16122,ΚΑΙΣΑΡΙΑΝΗ ΑΝΩ ΚΑΙΣΑΡΙΑΝΗ,37.9677304,23.7657285
242,16122,ΚΑΙΣΑΡΙΑΝΗ ΑΝΩ ΚΑΙΣΑΡΙΑΝΗ,37.9675175,23.7663022
243,16232,ΒΥΡΩΝΑΣ,37.9501551,23.7559864
244,16232,ΒΥΡΩΝΑΣ,37.9561341,23.7468181
245,16233,ΒΥΡΩΝ ΖΩΟΔΟΧΟΣ ΠΗΓΗ,37.9558502,23.7783759
246,16341,ΗΛΙΟΥΠΟΛΗ ΚΑΤΩ ΗΛΙΟΥΠΟΛΗ,37.922956,23.746483
247,16341,ΗΛΙΟΥΠΟΛΗ ΚΑΤΩ ΗΛΙΟΥΠΟΛΗ,37.9228009,23.7464688
248,16342,ΗΛΙΟΥΠΟΛΗ ΑΣΤΥΝΟΜΙΚΑ,37.9239615,23.7608051
249,16342,ΗΛΙΟΥΠΟΛΗ ΑΣΤΥΝΟΜΙΚΑ,37.9241974,23.7611665
250,16342,ΗΛΙΟΥΠΟΛΗ ΑΣΤΥΝΟΜΙΚΑ,37.9240084,23.7603042
251,16342,ΗΛΙΟΥΠΟΛΗ ΑΣΤΥΝΟΜΙΚΑ,37.9241509,23.7603624
252,16342,ΗΛΙΟΥΠΟΛΗ ΑΣΤΥΝΟΜΙΚΑ,37.9242629,23.7609238
253,16342,ΗΛΙΟΥΠΟΛΗ ΑΣΤΥΝΟΜΙΚΑ,37.9238753,23.76025
254,16342,ΗΛΙΟΥΠΟΛΗ ΑΣΤΥΝΟΜΙΚΑ,37.9237365,23.7601934
255,16342,ΗΛΙΟΥΠΟΛΗ ΑΣΤΥΝΟΜΙΚΑ,37.9238555,23.7610425
256,16342,ΗΛΙΟΥΠΟΛΗ ΑΣΤΥΝΟΜΙΚΑ,37.9243452,23.7605198
257,16342,ΗΛΙΟΥΠΟΛΗ ΑΣΤΥΝΟΜΙΚΑ,37.92436,23.7602042
258,16344,ΗΛΙΟΥΠΟΛΗ ΑΝΩ ΗΛΙΟΥΠΟΛΗ,37.9474463,23.7645346
259,16346,ΗΛΙΟΥΠΟΛΗ ΚΑΤΩ ΗΛΙΟΥΠΟΛΗ,37.9339857,23.7501562
260,16451,ΑΡΓΥΡΟΥΠΟΛΗ,37.9038104,23.7573105
261,16452,ΑΡΓΥΡΟΥΠΟΛΗ,37.9117602,23.7360091
262,16452,ΑΡΓΥΡΟΥΠΟΛΗ,37.9054884,23.7298871
263,16671,ΒΟΥΛΙΑΓΜΕΝΗ  ΜΙΚΡΟ ΚΑΒΟΥΡΙ,37.8180069,23.7745564
264,16671,ΒΟΥΛΙΑΓΜΕΝΗ  ΜΙΚΡΟ ΚΑΒΟΥΡΙ,37.8320131,23.7843684
265,16671,ΒΟΥΛΙΑΓΜΕΝΗ  ΜΙΚΡΟ ΚΑΒΟΥΡΙ,37.8284912,23.7721018
266,16671,ΒΟΥΛΙΑΓΜΕΝΗ  ΜΙΚΡΟ ΚΑΒΟΥΡΙ,37.814047,23.7736677
267,16671,ΒΟΥΛΙΑΓΜΕΝΗ  ΜΙΚΡΟ ΚΑΒΟΥΡΙ,37.8187347,23.7797032
268,16671,ΒΟΥΛΙΑΓΜΕΝΗ  ΜΙΚΡΟ ΚΑΒΟΥΡΙ,37.8186748,23.77951
269,16671,ΒΟΥΛΙΑΓΜΕΝΗ  ΜΙΚΡΟ ΚΑΒΟΥΡΙ,37.8191006,23.7797976
270,16671,ΒΟΥΛΙΑΓΜΕΝΗ  ΜΙΚΡΟ ΚΑΒΟΥΡΙ,37.8188703,23.7801167
271,16671,ΒΟΥΛΙΑΓΜΕΝΗ  ΜΙΚΡΟ ΚΑΒΟΥΡΙ,37.8191614,23.7799878
272,16671,ΒΟΥΛΙΑΓΜΕΝΗ  ΜΙΚΡΟ ΚΑΒΟΥΡΙ,37.8097394,23.7831441
273,16671,ΒΟΥΛΙΑΓΜΕΝΗ  ΜΙΚΡΟ ΚΑΒΟΥΡΙ,37.8137744,23.7805191
274,16671,ΒΟΥΛΙΑΓΜΕΝΗ  ΜΙΚΡΟ ΚΑΒΟΥΡΙ,37.8139654,23.7798956
275,16671,ΒΟΥΛΙΑΓΜΕΝΗ  ΜΙΚΡΟ ΚΑΒΟΥΡΙ,37.8179515,23.7708844
276,16671,ΒΟΥΛΙΑΓΜΕΝΗ  ΜΙΚΡΟ ΚΑΒΟΥΡΙ,37.8175056,23.7706169
277,16671,ΒΟΥΛΙΑΓΜΕΝΗ  ΜΙΚΡΟ ΚΑΒΟΥΡΙ,37.8178529,23.770504
278,16671,ΒΟΥΛΙΑΓΜΕΝΗ  ΜΙΚΡΟ ΚΑΒΟΥΡΙ,37.8133929,23.7779331
279,16671,ΒΟΥΛΙΑΓΜΕΝΗ  ΜΙΚΡΟ ΚΑΒΟΥΡΙ,37.8135039,23.7779355
280,16671,ΒΟΥΛΙΑΓΜΕΝΗ  ΜΙΚΡΟ ΚΑΒΟΥΡΙ,37.813653,23.7784026
281,16671,ΒΟΥΛΙΑΓΜΕΝΗ  ΜΙΚΡΟ ΚΑΒΟΥΡΙ,37.8136557,23.7782164
282,16671,ΒΟΥΛΙΑΓΜΕΝΗ  ΜΙΚΡΟ ΚΑΒΟΥΡΙ,37.8138871,23.7786408
283,16671,ΒΟΥΛΙΑΓΜΕΝΗ  ΜΙΚΡΟ ΚΑΒΟΥΡΙ,37.8139683,23.7797098
284,16671,ΒΟΥΛΙΑΓΜΕΝΗ  ΜΙΚΡΟ ΚΑΒΟΥΡΙ,37.8137718,23.7806955
285,16671,ΒΟΥΛΙΑΓΜΕΝΗ  ΜΙΚΡΟ ΚΑΒΟΥΡΙ,37.817742,23.7701319
286,16671,ΒΟΥΛΙΑΓΜΕΝΗ  ΜΙΚΡΟ ΚΑΒΟΥΡΙ,37.8177142,23.770545
287,16671,ΒΟΥΛΙΑΓΜΕΝΗ  ΜΙΚΡΟ ΚΑΒΟΥΡΙ,37.8327333,23.7716036
288,16672,ΒΑΡΗ,37.8364898,23.7895502
289,16672,ΒΑΡΗ,37.8368964,23.7895847
290,16672,ΒΑΡΗ,37.8207672,23.8091196
291,16672,ΒΑΡΗ,37.8314484,23.8062695
292,16672,ΒΑΡΗ,37.8315175,23.8059094
293,16672,ΒΑΡΗ,37.8314833,23.8060873
294,16672,ΒΑΡΗ,37.8164041,23.7989396
295,16672,ΒΑΡΗ,37.8203871,23.8049222
296,16672,ΒΑΡΗ,37.8204734,23.805079
297,16672,ΒΑΡΗ,37.8535523,23.8225267
298,16672,ΒΑΡΗ,37.8346753,23.8165991
299,16672,ΒΑΡΗ,37.8312136,23.8051975
300,16672,ΒΑΡΗ,37.832058,23.8173267
301,16672,ΒΑΡΗ,37.832059,23.8171211
302,16673,ΒΟΥΛΑ ΑΝΩ ΒΟΥΛΑ,37.854883,23.767983
303,16673,ΒΟΥΛΑ ΑΝΩ ΒΟΥΛΑ,37.8552287,23.7679915
304,16673,ΒΟΥΛΑ ΑΝΩ ΒΟΥΛΑ,37.8550549,23.7679633
305,16673,ΒΟΥΛΑ ΑΝΩ ΒΟΥΛΑ,37.8554008,23.7679718
306,16673,ΒΟΥΛΑ ΑΝΩ ΒΟΥΛΑ,37.855572,23.7679903
307,16673,ΒΟΥΛΑ ΑΝΩ ΒΟΥΛΑ,37.8542189,23.7698181
308,16673,ΒΟΥΛΑ ΑΝΩ ΒΟΥΛΑ,37.8449829,23.7612198
309,16673,ΒΟΥΛΑ ΑΝΩ ΒΟΥΛΑ,37.8600967,23.7838648
310,16673,ΒΟΥΛΑ ΑΝΩ ΒΟΥΛΑ,37.8518463,23.7512492
311,16673,ΒΟΥΛΑ ΑΝΩ ΒΟΥΛΑ,37.8515328,23.7512854
312,16674,ΓΛΥΦΑΔΑ,37.8589578,23.7556825
313,16674,ΓΛΥΦΑΔΑ,37.8555401,23.7549556
314,16674,ΓΛΥΦΑΔΑ,37.8552337,23.7551142
315,16674,ΓΛΥΦΑΔΑ,37.8553915,23.7551813
316,16674,ΓΛΥΦΑΔΑ,37.8555369,23.7552352
317,16675,ΓΛΥΦΑΔΑ,37.8702224,23.7424426
318,16675,ΓΛΥΦΑΔΑ,37.875176,23.7429508
319,16675,ΓΛΥΦΑΔΑ,37.875002,23.7427029
320,16675,ΓΛΥΦΑΔΑ,37.8684827,23.752577
321,16675,ΓΛΥΦΑΔΑ,37.8636519,23.7445885
322,16701,,37.8973483,23.7556824
323,16701,,37.8969724,23.7557459
324,16701,,37.8967432,23.7560743
325,16701,,37.8972664,23.7555182
326,16701,,37.8970471,23.7558958
327,16701,,37.8904731,23.7565933
328,16777,ΕΛΛΗΝΙΚΟ ΑΓΙΑ ΠΑΡΑΣΚΕΥ,37.8902633,23.7442109
329,16777,ΕΛΛΗΝΙΚΟ ΑΓΙΑ ΠΑΡΑΣΚΕΥ,37.8846461,23.7302701
330,16777,ΕΛΛΗΝΙΚΟ ΑΓΙΑ ΠΑΡΑΣΚΕΥ,37.8845223,23.7303509
331,16777,ΕΛΛΗΝΙΚΟ ΑΓΙΑ ΠΑΡΑΣΚΕΥ,37.881513,23.7306683
332,17122,ΝΕΑ ΣΜΥΡΝΗ,37.94198,23.7095239
333,17122,ΝΕΑ ΣΜΥΡΝΗ,37.9423171,23.7101432
334,17122,ΝΕΑ ΣΜΥΡΝΗ,37.9419532,23.7098688
335,17122,ΝΕΑ ΣΜΥΡΝΗ,37.941933,23.7096951
336,17124,ΝΕΑ ΣΜΥΡΝΗ ΑΝΩ ΝΕΑ ΣΜΥΡΝ,37.9463294,23.7221147
337,17341,ΑΓΙΑ ΔΗΜΗΤΡΙΟΣ,37.9318829,23.7230764
338,17341,ΑΓΙΑ ΔΗΜΗΤΡΙΟΣ,37.9328001,23.7277371
339,17341,ΑΓΙΑ ΔΗΜΗΤΡΙΟΣ,37.9278489,23.7221646
340,17455,ΑΛΙΜΟΣ ΚΑΛΑΜΑΚΙ,37.9205822,23.7225995
341,17455,ΑΛΙΜΟΣ ΚΑΛΑΜΑΚΙ,37.9207887,23.7222655
342,17455,ΑΛΙΜΟΣ ΚΑΛΑΜΑΚΙ,37.9207025,23.7222044
343,17455,ΑΛΙΜΟΣ ΚΑΛΑΜΑΚΙ,37.9109235,23.7071432
344,17455,ΑΛΙΜΟΣ ΚΑΛΑΜΑΚΙ,37.9109211,23.7073389
345,17456,ΑΛΙΜΟΣ ΕΚΤΕΛΩΝΙΣΤΩΝ,37.9147827,23.7370265
346,17456,ΑΛΙΜΟΣ ΕΚΤΕΛΩΝΙΣΤΩΝ,37.9152734,23.7370477
347,17456,ΑΛΙΜΟΣ ΕΚΤΕΛΩΝΙΣΤΩΝ,37.9146879,23.7371941
348,17456,ΑΛΙΜΟΣ ΕΚΤΕΛΩΝΙΣΤΩΝ,37.9153657,23.7368869
349,17456,ΑΛΙΜΟΣ ΕΚΤΕΛΩΝΙΣΤΩΝ,37.9169938,23.7427767
350,17456,ΑΛΙΜΟΣ ΕΚΤΕΛΩΝΙΣΤΩΝ,37.9099605,23.7309926
351,17456,ΑΛΙΜΟΣ ΕΚΤΕΛΩΝΙΣΤΩΝ,37.9090441,23.730542
352,17561,Π.ΦΑΛΗΡΟ,37.9330085,23.6874581
353,17561,Π.ΦΑΛΗΡΟ,37.9330048,23.6876416
354,17561,Π.ΦΑΛΗΡΟ,37.9330018,23.6878238
355,17561,Π.ΦΑΛΗΡΟ,37.9333673,23.6877463
356,17561,Π.ΦΑΛΗΡΟ,37.9329405,23.6946515
357,17561,Π.ΦΑΛΗΡΟ,37.9329625,23.6948371
358,17561,Π.ΦΑΛΗΡΟ,37.9328285,23.6942976
359,17561,Π.ΦΑΛΗΡΟ,37.9333687,23.6875609
360,17561,Π.ΦΑΛΗΡΟ,37.9333686,23.6873759
361,17561,Π.ΦΑΛΗΡΟ,37.9333694,23.6871922
362,17562,Π.ΦΑΛΗΡΟ,37.9230432,23.6995663
363,17562,Π.ΦΑΛΗΡΟ,37.9229708,23.6997418
364,17676,ΚΑΛΛΙΘΕΑ ΠΛΑΤΕΙΑ ΚΑΛΛΙΘΕΑ,37.960954,23.7013024
365,17676,ΚΑΛΛΙΘΕΑ ΠΛΑΤΕΙΑ ΚΑΛΛΙΘΕΑ,37.960752,23.7009004
366,17778,ΤΑΥΡΟΣ,37.9637387,23.7009239
367,18233,ΑΓΙΑ Ι.ΡΕΝΤΗΣ,37.9542554,23.6748555
368,18344,ΜΟΣΧΑΤΟ,37.9478209,23.68169
369,18454,ΝΙΚΑΙΑ ΑΣΠΡΑ ΧΩΜΑΤΑ,37.9758234,23.6669839
370,18454,ΝΙΚΑΙΑ ΑΣΠΡΑ ΧΩΜΑΤΑ,37.977597,23.6713431
371,18533,ΠΕΙΡΑΙΑΣ ΚΑΣΤΕΛΛΑ,37.9429457,23.6651416
372,18533,ΠΕΙΡΑΙΑΣ ΚΑΣΤΕΛΛΑ,37.9428808,23.665332
373,18533,ΠΕΙΡΑΙΑΣ ΚΑΣΤΕΛΛΑ,37.9359127,23.6560605
374,18534,ΠΕΙΡΑΙΑΣ ΠΛΑΤΕΙΑ ΑΛΕΞΑΝΔΡ,37.9357519,23.6539305
375,18537,ΠΕΙΡΑΙΑΣ ΑΓΙΑ ΝΙΚΟΛΑΟΣ,37.9282132,23.6431972
376,18537,ΠΕΙΡΑΙΑΣ ΑΓΙΑ ΝΙΚΟΛΑΟΣ,37.9282934,23.6430415
377,18537,ΠΕΙΡΑΙΑΣ ΑΓΙΑ ΝΙΚΟΛΑΟΣ,37.9308996,23.6467828
378,18538,ΠΕΙΡΑΙΑΣ ΧΑΤΖΗΚΥΡΙΑΚ,37.9341465,23.6286242
379,18538,ΠΕΙΡΑΙΑΣ ΧΑΤΖΗΚΥΡΙΑΚ,37.9341608,23.6287905
380,18538,ΠΕΙΡΑΙΑΣ ΧΑΤΖΗΚΥΡΙΑΚ,37.9341754,23.6289573
381,18538,ΠΕΙΡΑΙΑΣ ΧΑΤΖΗΚΥΡΙΑΚ,37.9341898,23.6291243
382,18541,ΠΕΙΡΑΙΑΣ ΑΠΟΛΛΩΝΟΣ,37.9525154,23.6645853
383,18758,ΚΕΡΑΤΣΙΝΙ ΑΜΦΙΑΛΗ,37.9663425,23.6117902
384,18758,ΚΕΡΑΤΣΙΝΙ ΑΜΦΙΑΛΗ,37.9664909,23.6108858
385,18758,ΚΕΡΑΤΣΙΝΙ ΑΜΦΙΑΛΗ,37.9663618,23.6119265
386,18758,ΚΕΡΑΤΣΙΝΙ ΑΜΦΙΑΛΗ,37.9663492,23.6117914
387,18758,ΚΕΡΑΤΣΙΝΙ ΑΜΦΙΑΛΗ,37.9663372,23.6116481
388,19002,ΠΑΙΑΝΙΑ,37.9594906,23.8475722
389,19002,ΠΑΙΑΝΙΑ,37.9591767,23.8474406
390,19002,ΠΑΙΑΝΙΑ,37.9522148,23.8596243
391,19400,ΚΟΡΩΠΙ KΑΡΕΛΛΑΣ,37.8674897,23.8586522
392,19400,ΚΟΡΩΠΙ KΑΡΕΛΛΑΣ,37.8541629,23.8181551
393,19400,ΚΟΡΩΠΙ KΑΡΕΛΛΑΣ,37.8050267,23.8528619
394,19400,ΚΟΡΩΠΙ KΑΡΕΛΛΑΣ,37.8070993,23.8496749
395,19400,ΚΟΡΩΠΙ KΑΡΕΛΛΑΣ,37.8318803,23.8700485
396,19400,ΚΟΡΩΠΙ KΑΡΕΛΛΑΣ,37.8309355,23.8658363
397,19400,ΚΟΡΩΠΙ KΑΡΕΛΛΑΣ,37.8037317,23.8577308
398,19400,ΚΟΡΩΠΙ KΑΡΕΛΛΑΣ,37.8671071,23.8210061
399,19400,ΚΟΡΩΠΙ KΑΡΕΛΛΑΣ,37.8723872,23.8267506
400,19400,ΚΟΡΩΠΙ KΑΡΕΛΛΑΣ,37.8723623,23.8269304
401,19400,ΚΟΡΩΠΙ KΑΡΕΛΛΑΣ,37.9260872,23.8620684
402,19400,ΚΟΡΩΠΙ KΑΡΕΛΛΑΣ,37.9103659,23.8680091
403,19400,ΚΟΡΩΠΙ KΑΡΕΛΛΑΣ,37.9103291,23.8681858
404,19400,ΚΟΡΩΠΙ KΑΡΕΛΛΑΣ,37.9102989,23.8683532
